COSMOS 2576             
1 59773U 24092A   26068.82603826  .00015211  00000+0  56283-3 0  9991
2 59773  97.4253 186.0053 0005946 159.7731 200.3745 15.27760963101271
STARLINK-35767          
1 67058U 25294AE  26068.28181702  .00036113  00000+0  13143-2 0  9996
2 67058  43.0039  40.6469 0004230 243.6710 116.3707 15.27600826 14735
